ATLAS CENTAUR 2         
1 00694U 63047A   25308.67738135  .00003822  00000+0  46209-3 0  9995
2 00694  30.3511 174.0062 0550203  58.9845 306.3612 14.11380785113945
THOR AGENA D R/B        
1 00733U 64002A   25308.76352889  .00000299  00000+0  12408-3 0  9998
2 00733  99.1224 310.3271 0031918 262.0838  97.6722 14.33925904220399
SL-3 R/B                
1 00877U 64053B   25308.79359919  .00000354  00000+0  93585-4 0  9995
2 00877  65.0775 337.3593 0070256 333.2711  26.4774 14.61213162248547
SL-8 R/B                
1 02802U 67045B   25308.72846377  .00000394  00000+0  11678-3 0  9997
2 02802  74.0111 221.4356 0065597 259.0672 100.3100 14.45491745 70965
SL-8 R/B                
1 03230U 68040B   25308.61681244  .00004224  00000+0  32223-3 0  9992
2 03230  74.0322 209.0413 0023385  61.9965 298.3585 15.02143609 71227
OAO 2                   
1 03597U 68110A   25308.15264540  .00000317  00000+0  90772-4 0  9994
2 03597  34.9932 246.0751 0006221 269.6286  90.3692 14.47207147   906
ISIS 1                  
1 03669U 69009A   25308.56030214  .00000200  00000+0  14058-3 0  9999
2 03669  88.4531 168.9694 1707810 341.8418  12.8143 11.30332483334390
SERT 2                  
1 04327U 70009A   25308.80355860 -.00000001  00000+0  54609-4 0  9994
2 04327  99.2582 253.8320 0005511 117.9040 271.5625 13.58710651762932
SL-3 R/B                
1 05118U 71028B   25308.79195002  .00027964  00000+0  46271-3 0  9994
2 05118  81.2418 205.1330 0022781  18.5586 341.6487 15.51741390969247
ASTEX 1                 
1 05560U 71089A   25308.48933991  .00000685  00000+0  17490-3 0  9997
2 05560  92.7118 111.2503 0016990 141.2242 219.0187 14.50567282844150
SL-8 R/B                
1 05730U 71119B   25308.70001588  .00005938  00000+0  31705-3 0  9994
2 05730  73.8896  48.8162 0561354  40.8524 323.3316 14.34814478637544
OAO 3 (COPERNICUS)      
1 06153U 72065A   25308.67100977  .00000468  00000+0  10065-3 0  9992
2 06153  35.0061 289.5210 0007104 221.5260 304.9688 14.59854167827914
