CCSDS_OMM_VERS = 2.0
CREATION_DATE  = 
ORIGINATOR     = 

OBJECT_NAME    = ATLAS CENTAUR 2
OBJECT_ID      = 1963-047A
CENTER_NAME    = EARTH
REF_FRAME      = TEME
TIME_SYSTEM    = UTC
MEAN_ELEMENT_THEORY = SGP/SGP4

EPOCH          = 2025-11-04T16:15:25.748640
MEAN_MOTION    = 14.11380785
ECCENTRICITY   = .0550203
INCLINATION    = 30.3511
RA_OF_ASC_NODE = 174.0062
ARG_OF_PERICENTER = 58.9845
MEAN_ANOMALY   = 306.3612

EPHEMERIS_TYPE = 0
CLASSIFICATION_TYPE = U
NORAD_CAT_ID   = 694
ELEMENT_SET_NO = 999
REV_AT_EPOCH   = 11394
BSTAR          = .46209E-3
MEAN_MOTION_DOT = .3822E-4
MEAN_MOTION_DDOT = 0

CCSDS_OMM_VERS = 2.0
CREATION_DATE  = 
ORIGINATOR     = 

OBJECT_NAME    = THOR AGENA D R/B
OBJECT_ID      = 1964-002A
CENTER_NAME    = EARTH
REF_FRAME      = TEME
TIME_SYSTEM    = UTC
MEAN_ELEMENT_THEORY = SGP/SGP4

EPOCH          = 2025-11-04T18:19:28.896096
MEAN_MOTION    = 14.33925904
ECCENTRICITY   = .0031918
INCLINATION    = 99.1224
RA_OF_ASC_NODE = 310.3271
ARG_OF_PERICENTER = 262.0838
MEAN_ANOMALY   = 97.6722

EPHEMERIS_TYPE = 0
CLASSIFICATION_TYPE = U
NORAD_CAT_ID   = 733
ELEMENT_SET_NO = 999
REV_AT_EPOCH   = 22039
BSTAR          = .12408E-3
MEAN_MOTION_DOT = .299E-5
MEAN_MOTION_DDOT = 0

CCSDS_OMM_VERS = 2.0
CREATION_DATE  = 
ORIGINATOR     = 

OBJECT_NAME    = SL-3 R/B
OBJECT_ID      = 1964-053B
CENTER_NAME    = EARTH
REF_FRAME      = TEME
TIME_SYSTEM    = UTC
MEAN_ELEMENT_THEORY = SGP/SGP4

EPOCH          = 2025-11-04T19:02:46.970016
MEAN_MOTION    = 14.61213162
ECCENTRICITY   = .0070256
INCLINATION    = 65.0775
RA_OF_ASC_NODE = 337.3593
ARG_OF_PERICENTER = 333.2711
MEAN_ANOMALY   = 26.4774

EPHEMERIS_TYPE = 0
CLASSIFICATION_TYPE = U
NORAD_CAT_ID   = 877
ELEMENT_SET_NO = 999
REV_AT_EPOCH   = 24854
BSTAR          = .93585E-4
MEAN_MOTION_DOT = .354E-5
MEAN_MOTION_DDOT = 0

CCSDS_OMM_VERS = 2.0
CREATION_DATE  = 
ORIGINATOR     = 

OBJECT_NAME    = SL-8 R/B
OBJECT_ID      = 1967-045B
CENTER_NAME    = EARTH
REF_FRAME      = TEME
TIME_SYSTEM    = UTC
MEAN_ELEMENT_THEORY = SGP/SGP4

EPOCH          = 2025-11-04T17:28:59.269728
MEAN_MOTION    = 14.45491745
ECCENTRICITY   = .0065597
INCLINATION    = 74.0111
RA_OF_ASC_NODE = 221.4356
ARG_OF_PERICENTER = 259.0672
MEAN_ANOMALY   = 100.3100

EPHEMERIS_TYPE = 0
CLASSIFICATION_TYPE = U
NORAD_CAT_ID   = 2802
ELEMENT_SET_NO = 999
REV_AT_EPOCH   = 7096
BSTAR          = .11678E-3
MEAN_MOTION_DOT = .394E-5
MEAN_MOTION_DDOT = 0

CCSDS_OMM_VERS = 2.0
CREATION_DATE  = 
ORIGINATOR     = 

OBJECT_NAME    = SL-8 R/B
OBJECT_ID      = 1968-040B
CENTER_NAME    = EARTH
REF_FRAME      = TEME
TIME_SYSTEM    = UTC
MEAN_ELEMENT_THEORY = SGP/SGP4

EPOCH          = 2025-11-04T14:48:12.594816
MEAN_MOTION    = 15.02143609
ECCENTRICITY   = .0023385
INCLINATION    = 74.0322
RA_OF_ASC_NODE = 209.0413
ARG_OF_PERICENTER = 61.9965
MEAN_ANOMALY   = 298.3585

EPHEMERIS_TYPE = 0
CLASSIFICATION_TYPE = U
NORAD_CAT_ID   = 3230
ELEMENT_SET_NO = 999
REV_AT_EPOCH   = 7122
BSTAR          = .32223E-3
MEAN_MOTION_DOT = .4224E-4
MEAN_MOTION_DDOT = 0

CCSDS_OMM_VERS = 2.0
CREATION_DATE  = 
ORIGINATOR     = 

OBJECT_NAME    = OAO 2
OBJECT_ID      = 1968-110A
CENTER_NAME    = EARTH
REF_FRAME      = TEME
TIME_SYSTEM    = UTC
MEAN_ELEMENT_THEORY = SGP/SGP4

EPOCH          = 2025-11-04T03:39:48.562560
MEAN_MOTION    = 14.47207147
ECCENTRICITY   = .0006221
INCLINATION    = 34.9932
RA_OF_ASC_NODE = 246.0751
ARG_OF_PERICENTER = 269.6286
MEAN_ANOMALY   = 90.3692

EPHEMERIS_TYPE = 0
CLASSIFICATION_TYPE = U
NORAD_CAT_ID   = 3597
ELEMENT_SET_NO = 999
REV_AT_EPOCH   = 90
BSTAR          = .90771694E-4
MEAN_MOTION_DOT = .317E-5
MEAN_MOTION_DDOT = 0

CCSDS_OMM_VERS = 2.0
CREATION_DATE  = 
ORIGINATOR     = 

OBJECT_NAME    = ISIS 1
OBJECT_ID      = 1969-009A
CENTER_NAME    = EARTH
REF_FRAME      = TEME
TIME_SYSTEM    = UTC
MEAN_ELEMENT_THEORY = SGP/SGP4

EPOCH          = 2025-11-04T13:26:50.104896
MEAN_MOTION    = 11.30332483
ECCENTRICITY   = .170781
INCLINATION    = 88.4531
RA_OF_ASC_NODE = 168.9694
ARG_OF_PERICENTER = 341.8418
MEAN_ANOMALY   = 12.8143

EPHEMERIS_TYPE = 0
CLASSIFICATION_TYPE = U
NORAD_CAT_ID   = 3669
ELEMENT_SET_NO = 999
REV_AT_EPOCH   = 33439
BSTAR          = .14058E-3
MEAN_MOTION_DOT = .2E-5
MEAN_MOTION_DDOT = 0

CCSDS_OMM_VERS = 2.0
CREATION_DATE  = 
ORIGINATOR     = 

OBJECT_NAME    = SERT 2
OBJECT_ID      = 1970-009A
CENTER_NAME    = EARTH
REF_FRAME      = TEME
TIME_SYSTEM    = UTC
MEAN_ELEMENT_THEORY = SGP/SGP4

EPOCH          = 2025-11-04T19:17:07.463040
MEAN_MOTION    = 13.58710651
ECCENTRICITY   = .0005511
INCLINATION    = 99.2582
RA_OF_ASC_NODE = 253.8320
ARG_OF_PERICENTER = 117.9040
MEAN_ANOMALY   = 271.5625

EPHEMERIS_TYPE = 0
CLASSIFICATION_TYPE = U
NORAD_CAT_ID   = 4327
ELEMENT_SET_NO = 999
REV_AT_EPOCH   = 76293
BSTAR          = .54609E-4
MEAN_MOTION_DOT = -.1E-7
MEAN_MOTION_DDOT = 0

CCSDS_OMM_VERS = 2.0
CREATION_DATE  = 
ORIGINATOR     = 

OBJECT_NAME    = SL-3 R/B
OBJECT_ID      = 1971-028B
CENTER_NAME    = EARTH
REF_FRAME      = TEME
TIME_SYSTEM    = UTC
MEAN_ELEMENT_THEORY = SGP/SGP4

EPOCH          = 2025-11-04T19:00:24.481728
MEAN_MOTION    = 15.51741390
ECCENTRICITY   = .0022781
INCLINATION    = 81.2418
RA_OF_ASC_NODE = 205.1330
ARG_OF_PERICENTER = 18.5586
MEAN_ANOMALY   = 341.6487

EPHEMERIS_TYPE = 0
CLASSIFICATION_TYPE = U
NORAD_CAT_ID   = 5118
ELEMENT_SET_NO = 999
REV_AT_EPOCH   = 96924
BSTAR          = .46271E-3
MEAN_MOTION_DOT = .27964E-3
MEAN_MOTION_DDOT = 0

CCSDS_OMM_VERS = 2.0
CREATION_DATE  = 
ORIGINATOR     = 

OBJECT_NAME    = ASTEX 1
OBJECT_ID      = 1971-089A
CENTER_NAME    = EARTH
REF_FRAME      = TEME
TIME_SYSTEM    = UTC
MEAN_ELEMENT_THEORY = SGP/SGP4

EPOCH          = 2025-11-04T11:44:38.968224
MEAN_MOTION    = 14.50567282
ECCENTRICITY   = .00169906
INCLINATION    = 92.7118
RA_OF_ASC_NODE = 111.2503
ARG_OF_PERICENTER = 141.2242
MEAN_ANOMALY   = 219.0187

EPHEMERIS_TYPE = 0
CLASSIFICATION_TYPE = U
NORAD_CAT_ID   = 5560
ELEMENT_SET_NO = 999
REV_AT_EPOCH   = 84415
BSTAR          = .17490023E-3
MEAN_MOTION_DOT = .685E-5
MEAN_MOTION_DDOT = 0

CCSDS_OMM_VERS = 2.0
CREATION_DATE  = 
ORIGINATOR     = 

OBJECT_NAME    = SL-8 R/B
OBJECT_ID      = 1971-119B
CENTER_NAME    = EARTH
REF_FRAME      = TEME
TIME_SYSTEM    = UTC
MEAN_ELEMENT_THEORY = SGP/SGP4

EPOCH          = 2025-11-04T16:48:01.372032
MEAN_MOTION    = 14.34814478
ECCENTRICITY   = .0561354
INCLINATION    = 73.8896
RA_OF_ASC_NODE = 48.8162
ARG_OF_PERICENTER = 40.8524
MEAN_ANOMALY   = 323.3316

EPHEMERIS_TYPE = 0
CLASSIFICATION_TYPE = U
NORAD_CAT_ID   = 5730
ELEMENT_SET_NO = 999
REV_AT_EPOCH   = 63754
BSTAR          = .31705E-3
MEAN_MOTION_DOT = .5938E-4
MEAN_MOTION_DDOT = 0

CCSDS_OMM_VERS = 2.0
CREATION_DATE  = 
ORIGINATOR     = 

OBJECT_NAME    = OAO 3 (COPERNICUS)
OBJECT_ID      = 1972-065A
CENTER_NAME    = EARTH
REF_FRAME      = TEME
TIME_SYSTEM    = UTC
MEAN_ELEMENT_THEORY = SGP/SGP4

EPOCH          = 2025-11-04T16:06:15.244128
MEAN_MOTION    = 14.59854167
ECCENTRICITY   = .0007104
INCLINATION    = 35.0061
RA_OF_ASC_NODE = 289.5210
ARG_OF_PERICENTER = 221.5260
MEAN_ANOMALY   = 304.9688

EPHEMERIS_TYPE = 0
CLASSIFICATION_TYPE = U
NORAD_CAT_ID   = 6153
ELEMENT_SET_NO = 999
REV_AT_EPOCH   = 82791
BSTAR          = .10065E-3
MEAN_MOTION_DOT = .468E-5
MEAN_MOTION_DDOT = 0

